[{"OBJECT_NAME":"NIMIQ 6","OBJECT_ID":"2012-026A","EPOCH":"2026-04-04T05:38:01.309632","MEAN_MOTION":1.00271852,"ECCENTRICITY":0.00026016,"INCLINATION":0.0451,"RA_OF_ASC_NODE":68.1529,"ARG_OF_PERICENTER":304.874,"MEAN_ANOMALY":172.9236,"EPHEMERIS_TYPE":0,"CLASSIFICATION_TYPE":"U","NORAD_CAT_ID":38342,"ELEMENT_SET_NO":999,"REV_AT_EPOCH":4967,"BSTAR":0,"MEAN_MOTION_DOT":-1.74e-6,"MEAN_MOTION_DDOT":0},{"OBJECT_NAME":"ZHONGXING-2A","OBJECT_ID":"2012-028A","EPOCH":"2026-04-04T02:48:38.679840","MEAN_MOTION":1.00271664,"ECCENTRICITY":9.28e-5,"INCLINATION":1.2634,"RA_OF_ASC_NODE":84.847,"ARG_OF_PERICENTER":337.3258,"MEAN_ANOMALY":270.7036,"EPHEMERIS_TYPE":0,"CLASSIFICATION_TYPE":"U","NORAD_CAT_ID":38352,"ELEMENT_SET_NO":999,"REV_AT_EPOCH":5055,"BSTAR":0,"MEAN_MOTION_DOT":-2.93e-6,"MEAN_MOTION_DDOT":0},{"OBJECT_NAME":"INTELSAT 19 (IS-19)","OBJECT_ID":"2012-030A","EPOCH":"2026-04-04T05:31:38.645760","MEAN_MOTION":1.00270509,"ECCENTRICITY":0.00030646,"INCLINATION":0.0206,"RA_OF_ASC_NODE":112.9512,"ARG_OF_PERICENTER":263.5924,"MEAN_ANOMALY":64.9174,"EPHEMERIS_TYPE":0,"CLASSIFICATION_TYPE":"U","NORAD_CAT_ID":38356,"ELEMENT_SET_NO":999,"REV_AT_EPOCH":4970,"BSTAR":0,"MEAN_MOTION_DOT":-5.7e-7,"MEAN_MOTION_DDOT":0},{"OBJECT_NAME":"ECHOSTAR 17","OBJECT_ID":"2012-035A","EPOCH":"2026-04-04T02:00:33.935904","MEAN_MOTION":1.00272213,"ECCENTRICITY":0.000194,"INCLINATION":0.0186,"RA_OF_ASC_NODE":175.3194,"ARG_OF_PERICENTER":204.3574,"MEAN_ANOMALY":95.7615,"EPHEMERIS_TYPE":0,"CLASSIFICATION_TYPE":"U","NORAD_CAT_ID":38551,"ELEMENT_SET_NO":999,"REV_AT_EPOCH":5032,"BSTAR":0,"MEAN_MOTION_DOT":-7.6e-7,"MEAN_MOTION_DDOT":0},{"OBJECT_NAME":"METEOSAT-10 (MSG-3)","OBJECT_ID":"2012-035B","EPOCH":"2026-04-04T04:13:43.663584","MEAN_MOTION":1.00273251,"ECCENTRICITY":0.00024263,"INCLINATION":4.4973,"RA_OF_ASC_NODE":61.3269,"ARG_OF_PERICENTER":295.6453,"MEAN_ANOMALY":259.02,"EPHEMERIS_TYPE":0,"CLASSIFICATION_TYPE":"U","NORAD_CAT_ID":38552,"ELEMENT_SET_NO":999,"REV_AT_EPOCH":5011,"BSTAR":0,"MEAN_MOTION_DOT":-5.0e-8,"MEAN_MOTION_DDOT":0},{"OBJECT_NAME":"SES-5","OBJECT_ID":"2012-036A","EPOCH":"2026-04-04T04:15:13.519584","MEAN_MOTION":1.00270782,"ECCENTRICITY":0.00019816,"INCLINATION":0.0597,"RA_OF_ASC_NODE":304.3178,"ARG_OF_PERICENTER":71.5629,"MEAN_ANOMALY":245.3841,"EPHEMERIS_TYPE":0,"CLASSIFICATION_TYPE":"U","NORAD_CAT_ID":38652,"ELEMENT_SET_NO":999,"REV_AT_EPOCH":4371,"BSTAR":0,"MEAN_MOTION_DOT":3.3e-7,"MEAN_MOTION_DDOT":0},{"OBJECT_NAME":"INTELSAT 20 (IS-20)","OBJECT_ID":"2012-043A","EPOCH":"2026-04-04T14:49:24.507264","MEAN_MOTION":1.00271574,"ECCENTRICITY":0.0002642,"INCLINATION":0.0174,"RA_OF_ASC_NODE":134.0441,"ARG_OF_PERICENTER":33.9804,"MEAN_ANOMALY":315.756,"EPHEMERIS_TYPE":0,"CLASSIFICATION_TYPE":"U","NORAD_CAT_ID":38740,"ELEMENT_SET_NO":999,"REV_AT_EPOCH":5001,"BSTAR":0,"MEAN_MOTION_DOT":-2.4e-7,"MEAN_MOTION_DDOT":0},{"OBJECT_NAME":"HYLAS 2","OBJECT_ID":"2012-043B","EPOCH":"2026-04-04T05:35:50.786880","MEAN_MOTION":1.00272814,"ECCENTRICITY":0.00027497,"INCLINATION":2.2366,"RA_OF_ASC_NODE":81.9533,"ARG_OF_PERICENTER":317.144,"MEAN_ANOMALY":164.8735,"EPHEMERIS_TYPE":0,"CLASSIFICATION_TYPE":"U","NORAD_CAT_ID":38741,"ELEMENT_SET_NO":999,"REV_AT_EPOCH":5003,"BSTAR":0,"MEAN_MOTION_DOT":-2.57e-6,"MEAN_MOTION_DDOT":0},{"OBJECT_NAME":"INTELSAT 21 (IS-21)","OBJECT_ID":"2012-045A","EPOCH":"2026-04-04T05:39:57.891744","MEAN_MOTION":1.00270089,"ECCENTRICITY":0.0001946,"INCLINATION":0.0203,"RA_OF_ASC_NODE":212.6,"ARG_OF_PERICENTER":178.1812,"MEAN_ANOMALY":188.7695,"EPHEMERIS_TYPE":0,"CLASSIFICATION_TYPE":"U","NORAD_CAT_ID":38749,"ELEMENT_SET_NO":999,"REV_AT_EPOCH":4978,"BSTAR":0,"MEAN_MOTION_DOT":0,"MEAN_MOTION_DDOT":0},{"OBJECT_NAME":"ASTRA 2F","OBJECT_ID":"2012-051A","EPOCH":"2026-04-04T04:31:38.667936","MEAN_MOTION":1.00269385,"ECCENTRICITY":0.00015222,"INCLINATION":0.0674,"RA_OF_ASC_NODE":255.2493,"ARG_OF_PERICENTER":31.8562,"MEAN_ANOMALY":1.5201,"EPHEMERIS_TYPE":0,"CLASSIFICATION_TYPE":"U","NORAD_CAT_ID":38778,"ELEMENT_SET_NO":999,"REV_AT_EPOCH":4039,"BSTAR":0,"MEAN_MOTION_DOT":1.49e-6,"MEAN_MOTION_DDOT":0},{"OBJECT_NAME":"GSAT-10","OBJECT_ID":"2012-051B","EPOCH":"2026-04-04T05:25:38.591904","MEAN_MOTION":1.00273174,"ECCENTRICITY":0.00061753,"INCLINATION":0.0847,"RA_OF_ASC_NODE":265.6871,"ARG_OF_PERICENTER":171.5252,"MEAN_ANOMALY":279.7188,"EPHEMERIS_TYPE":0,"CLASSIFICATION_TYPE":"U","NORAD_CAT_ID":38779,"ELEMENT_SET_NO":999,"REV_AT_EPOCH":4935,"BSTAR":0,"MEAN_MOTION_DOT":-1.65e-6,"MEAN_MOTION_DDOT":0},{"OBJECT_NAME":"INTELSAT 23 (IS-23)","OBJECT_ID":"2012-057A","EPOCH":"2026-04-04T05:41:20.260320","MEAN_MOTION":1.00269445,"ECCENTRICITY":5.956e-5,"INCLINATION":0.0182,"RA_OF_ASC_NODE":249.6397,"ARG_OF_PERICENTER":152.9859,"MEAN_ANOMALY":182.2427,"EPHEMERIS_TYPE":0,"CLASSIFICATION_TYPE":"U","NORAD_CAT_ID":38867,"ELEMENT_SET_NO":999,"REV_AT_EPOCH":4921,"BSTAR":0,"MEAN_MOTION_DOT":-2.85e-6,"MEAN_MOTION_DDOT":0},{"OBJECT_NAME":"BEIDOU-2 G6","OBJECT_ID":"2012-059A","EPOCH":"2026-04-04T01:12:23.556960","MEAN_MOTION":1.00271777,"ECCENTRICITY":0.00108948,"INCLINATION":4.2347,"RA_OF_ASC_NODE":74.3032,"ARG_OF_PERICENTER":311.1806,"MEAN_ANOMALY":269.038,"EPHEMERIS_TYPE":0,"CLASSIFICATION_TYPE":"U","NORAD_CAT_ID":38953,"ELEMENT_SET_NO":999,"REV_AT_EPOCH":4916,"BSTAR":0,"MEAN_MOTION_DOT":-1.75e-6,"MEAN_MOTION_DDOT":0},{"OBJECT_NAME":"LUCH-5B","OBJECT_ID":"2012-061A","EPOCH":"2026-04-04T04:09:06.606432","MEAN_MOTION":1.0027362,"ECCENTRICITY":0.00024512,"INCLINATION":10.3265,"RA_OF_ASC_NODE":50.6027,"ARG_OF_PERICENTER":229.3603,"MEAN_ANOMALY":318.4857,"EPHEMERIS_TYPE":0,"CLASSIFICATION_TYPE":"U","NORAD_CAT_ID":38977,"ELEMENT_SET_NO":999,"REV_AT_EPOCH":4886,"BSTAR":0,"MEAN_MOTION_DOT":-1.35e-6,"MEAN_MOTION_DDOT":0},{"OBJECT_NAME":"YAMAL 300K","OBJECT_ID":"2012-061B","EPOCH":"2026-04-04T01:40:35.851296","MEAN_MOTION":1.00272982,"ECCENTRICITY":3.939e-5,"INCLINATION":0.011,"RA_OF_ASC_NODE":186.0808,"ARG_OF_PERICENTER":45.6533,"MEAN_ANOMALY":168.75,"EPHEMERIS_TYPE":0,"CLASSIFICATION_TYPE":"U","NORAD_CAT_ID":38978,"ELEMENT_SET_NO":999,"REV_AT_EPOCH":4888,"BSTAR":0,"MEAN_MOTION_DOT":7.0e-7,"MEAN_MOTION_DDOT":0},{"OBJECT_NAME":"STAR ONE C3","OBJECT_ID":"2012-062A","EPOCH":"2026-04-04T05:35:05.858880","MEAN_MOTION":1.00271931,"ECCENTRICITY":0.0002534,"INCLINATION":0.0297,"RA_OF_ASC_NODE":267.8834,"ARG_OF_PERICENTER":127.3143,"MEAN_ANOMALY":166.113,"EPHEMERIS_TYPE":0,"CLASSIFICATION_TYPE":"U","NORAD_CAT_ID":38991,"ELEMENT_SET_NO":999,"REV_AT_EPOCH":4902,"BSTAR":0,"MEAN_MOTION_DOT":-2.5e-6,"MEAN_MOTION_DDOT":0},{"OBJECT_NAME":"EUTELSAT 21B","OBJECT_ID":"2012-062B","EPOCH":"2026-04-04T04:39:38.850624","MEAN_MOTION":1.00272988,"ECCENTRICITY":0.00028345,"INCLINATION":0.0709,"RA_OF_ASC_NODE":8.9559,"ARG_OF_PERICENTER":3.025,"MEAN_ANOMALY":272.0308,"EPHEMERIS_TYPE":0,"CLASSIFICATION_TYPE":"U","NORAD_CAT_ID":38992,"ELEMENT_SET_NO":999,"REV_AT_EPOCH":4908,"BSTAR":0,"MEAN_MOTION_DOT":1.29e-6,"MEAN_MOTION_DDOT":0}]
